ONEWEB-0403             
1 50483U 21132Q   26190.65367270  .00000013  00000+0  14677-5 0  9996
2 50483  87.9189 330.9877 0001833  92.5840 267.5502 13.18686511224559
ONEWEB-0404             
1 50484U 21132R   26190.76274803 -.00000249  00000+0 -73908-3 0  9991
2 50484  87.8888  16.5725 0001952  79.3745 280.7603 13.11414368218658
ONEWEB-0405             
1 50485U 21132S   26190.66715064  .00000072  00000+0  14940-3 0  9993
2 50485  87.9190 330.9705 0002335 100.1253 260.0143 13.18683913224951
ONEWEB-0406             
1 50486U 21132T   26190.65872672  .00000021  00000+0  19402-4 0  9995
2 50486  87.9186 330.9870 0001879  81.1920 278.9425 13.18686406224581
ONEWEB-0407             
1 50487U 21132U   26190.65197549  .00000032  00000+0  48734-4 0  9991
2 50487  87.9192 330.9814 0001880 103.9526 256.1815 13.18688005224526
ONEWEB-0409             
1 50488U 21132V   26189.92179169 -.00000285  00000+0 -84063-3 0  9994
2 50488  87.8883  16.7277 0002031  83.2345 276.9014 13.11414776218432
ONEWEB-0412             
1 50489U 21132W   26190.64018005  .00000030  00000+0  43614-4 0  9991
2 50489  87.9188 330.9915 0001589 102.0679 258.0631 13.18686442224610
ONEWEB-0413             
1 50490U 21132X   26190.64524008  .00000006  00000+0 -18049-4 0  9996
2 50490  87.9178 330.9873 0001709 106.0038 254.1282 13.18687292224557
ONEWEB-0414             
1 50491U 21132Y   26190.63006322  .00000061  00000+0  12092-3 0  9991
2 50491  87.9191 330.9741 0001723  97.6650 262.4677 13.18686828224585
ONEWEB-0417             
1 50492U 21132Z   26190.63849113  .00000055  00000+0  10665-3 0  9992
2 50492  87.9182 330.9908 0001903  89.6940 270.4410 13.18687140224564
ONEWEB-0418             
1 50493U 21132AA  26190.64846850  .00000034  00000+0  52943-4 0  9992
2 50493  87.9185 330.9896 0001947  89.3039 270.8316 13.18685871224623
ONEWEB-0419             
1 50494U 21132AB  26190.66741016  .00000058  00000+0  11550-3 0  9997
2 50494  87.9189 330.9864 0002150  94.6508 265.4870 13.18666140224544
ONEWEB-0420             
1 50495U 21132AC  26190.63173545  .00000063  00000+0  12597-3 0  9999
2 50495  87.9181 330.9939 0001918 104.0707 256.0638 13.18687706224536
ONEWEB-0421             
1 50496U 21132AD  26190.62500949  .00014534  00000+0  36815-1 0  9996
2 50496  87.9186 330.9935 0001306 109.0068 251.1206 13.18608134224573
ONEWEB-0424             
1 50497U 21132AE  26190.66210394  .00012145  00000+0  30760-1 0  9992
2 50497  87.9186 330.9854 0002488 105.2254 254.9154 13.18622331224603
ONEWEB-0426             
1 50498U 21132AF  26190.62079146  .00000017  00000+0  97901-5 0  9996
2 50498  87.9187 330.9851 0001501  74.1664 285.9633 13.18685785224547
